CENTISPACE-1 S6         
1 54021U 22126B   23297.06610572  .00000894  00000+0  22833-3 0  9996
2 54021  54.9977 111.2145 0017638  67.0270 293.2581 14.58847945 55664
OTB-3-GAZELLE           
1 54023U 22127A   23296.95211769  .00000258  00000+0  91766-4 0  9997
2 54023  98.3323 291.7226 0012462 223.9594 136.0606 14.41924646 54936
ASO-S                   
1 54029U 22129A   23297.20707277  .00000305  00000+0  88030-4 0  9991
2 54029  98.2701 301.2362 0014768 175.7681 184.3641 14.51121815 55137
HJ-2E                   
1 54035U 22132A   23297.17349119  .00012209  00000+0  49889-3 0  9999
2 54035  97.3915 302.2120 0009177 124.1953 236.0156 15.24477873 57274
COSMOS 2561             
1 54109U 22137A   23297.21906380  .00020452  00000+0  34084-3 0  9990
2 54109  97.0439  17.6509 0013435 143.2263 216.9915 15.51919841 57108
GONETS-M 23             
1 54150U 22139A   23297.16768438  .00000040  00000+0  21336-3 0  9999
2 54150  82.5076 229.1719 0020687 168.7557 191.3989 12.42891410 45515
GONETS-M 24             
1 54151U 22139B   23297.13878214  .00000041  00000+0  22077-3 0  9995
2 54151  82.4994 228.9009 0015428 177.6652 182.4502 12.42890641 45512
GONETS-M 25             
1 54152U 22139C   23297.20590062  .00000036  00000+0  18647-3 0  9998
2 54152  82.5059 229.0296 0019244 177.4464 182.6718 12.42881416 45527
SKIF-D                  
1 54153U 22139D   23296.14189001  .00000053  00000+0  00000+0 0  9997
2 54153  89.9978  96.7918 0008243 113.0058 247.1319  5.00427591 15674
MATS                    
1 54227U 22147A   23296.97990379  .00002854  00000+0  26556-3 0  9996
2 54227  97.6605 295.6025 0012270 200.7271 159.3454 14.95044691 52736
JILIN-1 GAOFEN 03D54    
1 54254U 22155D   23297.20935355  .00009983  00000+0  52375-3 0  9993
2 54254  97.5508  42.7847 0013860 185.5074 174.6008 15.15866143 51682
EOS-6 (OCEANSAT-3)      
1 54361U 22158A   23297.18176903  .00000597  00000+0  17634-3 0  9999
2 54361  98.3544  32.4299 0001220 110.7735 249.3588 14.46980221 47997
THYBOLT-1               
1 54363U 22158C   23297.20621829  .00041825  00000+0  11195-2 0  9990
2 54363  97.4431  36.5645 0007761 172.8867 187.2489 15.37885403 50648
THYBOLT-2               
1 54364U 22158D   23297.22679648  .00039208  00000+0  10598-2 0  9993
2 54364  97.4432  36.5380 0007618 173.7637 186.3704 15.37597606 50647
INS-2B                  
1 54365U 22158E   23297.19713248  .00037512  00000+0  10437-2 0  9993
2 54365  97.4398  36.2386 0008276 181.6155 178.5064 15.36702941 50636
ANAND                   
1 54366U 22158F   23297.18240438  .00026177  00000+0  81267-3 0  9994
2 54366  97.4392  35.5826 0008338 179.6756 180.4493 15.33324346 50594
ASTROCAST-0304          
1 54367U 22158G   23297.19130740  .00009454  00000+0  35873-3 0  9991
2 54367  97.4424  34.6804 0008892 187.5074 172.6033 15.27030515 50513
ASTROCAST-0303          
1 54368U 22158H   23297.17167187  .00038358  00000+0  14102-2 0  9991
2 54368  97.4462  34.8351 0006983 206.0215 154.0674 15.27769580 50525
ASTROCAST-0302          
1 54369U 22158J   23297.22332148  .00010163  00000+0  38290-3 0  9998
2 54369  97.4455  34.8921 0007260 186.7218 173.3925 15.27257345 50532
ASTROCAST-0301          
1 54370U 22158K   23297.20752270  .00009311  00000+0  35145-3 0  9999
2 54370  97.4468  34.9540 0008004 198.3811 161.7140 15.27215480 50535
CZ-2D R/B               
1 54373U 22160B   23297.17686885  .09915204  11794-5  43508-2 0  9994
2 54373  34.9792 248.0996 0011480 205.9572 274.0654 16.21157057 51065
2022-167A               
1 54682U 22167A   23297.17697064  .00022683  00000+0  10338-2 0  9993
2 54682  97.5728  74.6659 0011148 246.9157 113.0903 15.20611443 48265
CAS-5A (FO-118)         
1 54684U 22167C   23297.14226155  .00017991  00000+0  88655-3 0  9995
2 54684  97.5786  74.2891 0012120 250.1726 109.8202 15.17943935 48215
DONGPO 09               
1 54685U 22167D   23297.19351641  .00009186  00000+0  50549-3 0  9998
2 54685  97.5856  73.9946 0007971 261.4631  98.5698 15.14251180 48189
DONGPO 08               
1 54686U 22167E   23297.16006304  .00007919  00000+0  43923-3 0  9999
2 54686  97.5805  73.6921 0008611 281.2455  78.7808 15.14009413 48172
2022-167F               
1 54687U 22167F   23297.17519431  .00014175  00000+0  71416-3 0  9991
2 54687  97.5733  73.9651 0012894 259.7174 100.2606 15.17215114 48203
DONGPO 10               
1 54689U 22167H   23297.20058305  .00009281  00000+0  51571-3 0  9997
2 54689  97.5878  74.0812 0011360 247.7877 112.2149 15.13872176 48185
2022-167M               
1 54693U 22167M   23297.17058921  .00024062  00000+0  10512-2 0  9995
2 54693  97.5780  75.2184 0011664 247.6417 112.3583 15.22043835 48245
JILIN-1 GAOFEN 03D48    
1 54695U 22167P   23297.14541404  .00010088  00000+0  55763-3 0  9998
2 54695  97.5815  73.9046 0011828 265.9099  94.0780 15.14031706 48182
CZ-2D R/B               
1 54747U 22171B   23296.20007049  .00440278  00000+0  26133-2 0  9995
2 54747  34.9770 119.0570 0014550 337.9010  22.1092 15.75670681 48150
STAR VIBE               
1 55009U 23001A   23297.17006899  .00007185  00000+0  38179-3 0  9999
2 55009  97.4620 354.0099 0008242 304.1861  55.8590 15.15570355 44566
BRO-8                   
1 55011U 23001C   23297.09849245  .00007829  00000+0  41536-3 0  9999
2 55011  97.4681 354.1659 0009209 305.9334  54.1044 15.15589453 44551
CONNECTA T1.2           
1 55012U 23001D   23297.13388959  .00011823  00000+0  60451-3 0  9991
2 55012  97.4694 354.4892 0009813 300.7280  59.2986 15.16767257 44576
BIRKELAND               
1 55015U 23001G   23297.12995381  .00009806  00000+0  48705-3 0  9992
2 55015  97.4679 354.7440 0008625 293.5360  66.4967 15.17845012 44590
ION SCV-008             
1 55051U 23001AU  23296.80451455  .00004158  00000+0  24492-3 0  9997
2 55051  97.6301  11.2238 0012950   4.5704 355.5642 15.12099175 44433
ION SCV-007             
1 55060U 23001BD  23296.89375209  .00000913  00000+0  14297-3 0  9995
2 55060  98.0336 356.8989 0012506 199.0051 161.0693 14.75065766 43510
NSL-2                   
1 55067U 23001BL  23296.41392732  .00026324  00000+0  94130-3 0  9998
2 55067  97.4658 356.4392 0010841 277.2588  82.7419 15.28731328 44648
TAUSAT-2                
1 55073U 23001BS  23296.41691973  .00012584  00000+0  55748-3 0  9999
2 55073  97.4638 355.0766 0013398 261.9601  98.0115 15.21689341 44563
FLOCK 4Y-23             
1 55080U 23001BZ  23296.88535674  .00012748  00000+0  57565-3 0  9994
2 55080  97.4623 355.4506 0012801 280.2372  79.7419 15.21037321 44634
HUYGENS                 
1 55093U 23001CN  23297.14366505  .00005104  00000+0  25578-3 0  9990
2 55093  97.4634 354.8409 0014022 273.9393  86.0238 15.17721344 44612
BDSAT-2                 
1 55098U 23001CT  23296.14560339  .00018664  00000+0  81768-3 0  9993
2 55098  97.4674 354.9649 0013113 277.0179  82.9566 15.21984275 44523
SHARJAHSAT-1            
1 55104U 23001CZ  23297.13821603  .00007444  00000+0  38989-3 0  9996
2 55104  97.4638 354.1278 0010017 304.8241  55.2049 15.16051297 44566
2023-003A               
1 55133U 23003A   23297.16523718  .00011091  00000+0  54356-3 0  9998
2 55133  97.2525  14.9633 0005310 347.1196  12.9902 15.18288209 43638
2023-007N               
1 55260U 23007N   23297.21511103  .00033664  00000+0  79723-3 0  9999
2 55260  97.3412  10.3498 0006530  26.2173 333.9403 15.41681943 43224
2023-007P               
1 55261U 23007P   23297.12231368  .00024169  00000+0  66431-3 0  9994
2 55261  97.3416   9.3938 0008552  34.3048 325.8747 15.37170353 43159
ION SCV-009             
1 55441U 23014BC  23296.78792541  .00071102  00000+0  53960-3 0  9990
2 55441  70.0031  71.9560 0007206 300.1560  59.8922 15.71962145 41753
EOS-7                   
1 55562U 23019A   23296.45451225  .00037956  00000+0  76373-3 0  9996
2 55562  37.1840 302.7872 0002596 338.9701 144.4989 15.45678956 39467
AZAADISAT-2             
1 55563U 23019B   23297.02644338  .00199359  00000+0  10527-2 0  9994
2 55563  37.1728 271.4394 0005202 165.4225 194.6697 15.79097536 39857
HORUS 1                 
1 55690U 23025A   23297.20160745  .00008426  00000+0  36040-3 0  9990
2 55690  97.4507   9.7039 0006270 148.9100 211.2508 15.23061502 36839
HORUS 2                 
1 55844U 23032A   23297.16952674  .00009660  00000+0  40980-3 0  9993
2 55844  97.4558   9.7291 0005279 184.5668 175.5521 15.23305632 34266
GLOBAL-19               
1 55982U 23041B   23296.89914622  .00023945  00000+0  60977-3 0  9996
2 55982  42.0137  85.3164 0023212 285.1107  74.7165 15.38785316 32933
DEWASAT-2               
1 56180U 23054C   23297.20914535  .00015932  00000+0  59593-3 0  9999
2 56180  97.3902 190.5624 0007628 316.1595  43.9038 15.27381234 29826
KILICSAT                
1 56181U 23054D   23297.17426108  .00015677  00000+0  60051-3 0  9997
2 56181  97.3855 190.3572 0006808 314.8977  45.1709 15.26601591 29821
SSS-2B                  
1 56184U 23054G   23297.15198920  .00018237  00000+0  69092-3 0  9995
2 56184  97.3919 190.5454 0007865 313.5797  46.4788 15.26926446 29826
BRO-9                   
1 56185U 23054H   23297.13678705  .00009567  00000+0  39125-3 0  9998
2 56185  97.3828 190.0122 0006937 305.0957  54.9630 15.24532969 29805
CIRBE                   
1 56188U 23054L   23296.27182201  .00028087  00000+0  10086-2 0  9998
2 56188  97.3873 189.7716 0006394 309.2196  50.8476 15.28614611 29701
ION SCV-010             
1 56192U 23054Q   23297.18978639  .00003913  00000+0  28859-3 0  9991
2 56192  97.4911 188.1269 0012200 200.8030 159.2701 15.03798482 29552
GHOST-1                 
1 56195U 23054T   23297.14880405  .00009590  00000+0  38748-3 0  9998
2 56195  97.3848 190.2074 0008256 286.7373  73.2958 15.24930877 29817
GHOST-2                 
1 56197U 23054V   23296.96204863  .00010740  00000+0  42372-3 0  9994
2 56197  97.3843 190.1429 0008812 288.9290  71.0992 15.25695238 29798
